NORAD_CAT_ID,OBJECT_NAME,OBJECT_TYPE,EPOCH,MEAN_MOTION,ECCENTRICITY,INCLINATION,RA_OF_ASC_NODE,ARG_OF_PERICENTER,MEAN_ANOMALY,BSTAR,MEAN_MOTION_DOT,MEAN_MOTION_DDOT,TLE_LINE0,TLE_LINE1,TLE_LINE2,SEMIMAJOR_AXIS,PERIOD,APOGEE,PERIGEE,DECAYED
53783.0,STARLINK-4536,PAYLOAD,2024-04-20 07:10:01,15.08856332,0.000145,53.217,124.3463,88.0672,272.0486,0.0002329,3.422e-05,0.0,0 STARLINK-4536,1 53783U 22111L   24111.29862440  .00003422  00000-0  23290-3 0  9997,2 53783  53.2170 124.3463 0001450  88.0672 272.0486 15.08856332 88961,6917.83,95.437,540.699,538.692,0.0
53783.0,STARLINK-4536,PAYLOAD,2024-04-21 03:50:02,15.08840849,0.0001387,53.2188,120.4708,93.9048,266.2102,1.3613e-05,-7.1e-07,0.0,0 STARLINK-4536,1 53783U 22111L   24112.15975684 -.00000071  00000-0  13613-4 0  9995,2 53783  53.2188 120.4708 0001387  93.9048 266.2102 15.08840849 89091,6917.878,95.438,540.702,538.783,0.0
53783.0,STARLINK-4536,PAYLOAD,2024-04-21 10:11:35,15.08826497,0.0001089,53.2162,119.2877,100.6491,259.4624,-0.00024536,-4.189e-05,0.0,0 STARLINK-4536,1 53783U 22111L   24112.42472115 -.00004189  00000-0 -24536-3 0  9996,2 53783  53.2162 119.2877 0001089 100.6491 259.4624 15.08826497 89943,6917.922,95.438,540.54,539.033,0.0
53783.0,STARLINK-4536,PAYLOAD,2024-04-22 03:40:50,15.08838198,9.48e-05,53.2163,116.0166,100.1701,259.9398,-0.00010246,-1.918e-05,0.0,0 STARLINK-4536,1 53783U 22111L   24113.15335830 -.00001918  00000-0 -10246-3 0  9999,2 53783  53.2163 116.0166 0000948 100.1701 259.9398 15.08838198 89249,6917.886,95.438,540.407,539.095,0.0
53783.0,STARLINK-4536,PAYLOAD,2024-04-22 10:02:22,15.08843498,0.00013,53.2151,114.8291,106.4105,253.703,0.0002492,3.681e-05,0.0,0 STARLINK-4536,1 53783U 22111L   24113.41831779  .00003681  00000-0  24920-3 0  9992,2 53783  53.2151 114.8291 0001300 106.4105 253.7030 15.08843498 90090,6917.87,95.437,540.634,538.835,0.0
53783.0,STARLINK-4536,PAYLOAD,2024-04-23 05:07:00,15.0884699,0.0001341,53.2154,111.2601,105.5384,254.5756,0.00043772,6.687e-05,0.0,0 STARLINK-4536,1 53783U 22111L   24114.21320031  .00006687  00000-0  43772-3 0  9990,2 53783  53.2154 111.2601 0001341 105.5384 254.5756 15.08846990 90211,6917.859,95.437,540.652,538.796,0.0
53783.0,STARLINK-4536,PAYLOAD,2024-04-24 03:22:24,15.08842391,0.0001383,53.2157,107.0964,102.9217,257.1929,1.7094e-05,-1.6e-07,0.0,0 STARLINK-4536,1 53783U 22111L   24115.14055874 -.00000016  00000-0  17094-4 0  9993,2 53783  53.2157 107.0964 0001383 102.9217 257.1929 15.08842391 89547,6917.873,95.437,540.695,538.781,0.0
53783.0,STARLINK-4536,PAYLOAD,2024-04-25 04:48:34,15.08841597,0.0001407,53.2161,102.3406,102.361,257.7539,7.8178e-05,9.57e-06,0.0,0 STARLINK-4536,1 53783U 22111L   24116.20039917  .00000957  00000-0  78178-4 0  9994,2 53783  53.2161 102.3406 0001407 102.3610 257.7539 15.08841597 89707,6917.876,95.437,540.714,538.767,0.0
53783.0,STARLINK-4536,PAYLOAD,2024-04-25 07:59:20,15.08843207,0.000145,53.2166,101.7464,104.3607,255.7546,9.2843e-05,1.19e-05,0.0,0 STARLINK-4536,1 53783U 22111L   24116.33287814  .00001190  00000-0  92843-4 0  9994,2 53783  53.2166 101.7464 0001450 104.3607 255.7546 15.08843207 90534,6917.871,95.437,540.739,538.732,0.0
53783.0,STARLINK-4536,PAYLOAD,2024-04-25 22:17:49,15.08841192,0.0001544,53.2174,99.0717,104.9235,255.1928,0.00011458,1.536e-05,0.0,0 STARLINK-4536,1 53783U 22111L   24116.92903974  .00001536  00000-0  11458-3 0  9997,2 53783  53.2174  99.0717 0001544 104.9235 255.1928 15.08841192 90629,6917.877,95.437,540.81,538.674,0.0
53783.0,STARLINK-4536,PAYLOAD,2024-04-26 04:39:21,15.08838795,0.0001553,53.217,97.8809,108.5552,251.5609,6.297e-05,7.14e-06,0.0,0 STARLINK-4536,1 53783U 22111L   24117.19400073  .00000714  00000-0  62970-4 0  9992,2 53783  53.2170  97.8809 0001553 108.5552 251.5609 15.08838795 90660,6917.884,95.438,540.823,538.675,0.0
53783.0,STARLINK-4536,PAYLOAD,2024-04-26 15:47:03,15.08849754,0.0001458,53.2166,95.7998,89.988,270.1279,0.00020887,3.039e-05,0.0,0 STARLINK-4536,1 53783U 22111L   24117.65767537  .00003039  00000-0  20887-3 0  9997,2 53783  53.2166  95.7998 0001458  89.9880 270.1279 15.08849754 89925,6917.851,95.437,540.724,538.707,0.0
53783.0,STARLINK-4536,PAYLOAD,2024-04-26 22:08:36,15.08837571,0.0001714,53.2169,94.61,94.8867,265.2321,1.1711e-05,-1.02e-06,0.0,0 STARLINK-4536,1 53783U 22111L   24117.92264154 -.00000102  00000-0  11711-4 0  9990,2 53783  53.2169  94.6100 0001714  94.8867 265.2321 15.08837571 90778,6917.888,95.438,540.939,538.567,0.0
53783.0,STARLINK-4536,PAYLOAD,2024-04-27 04:30:08,15.08840272,0.0001219,53.2146,93.4212,96.7473,263.3658,1.0504e-05,-1.21e-06,0.0,0 STARLINK-4536,1 53783U 22111L   24118.18759912 -.00000121  00000-0  10504-4 0  9990,2 53783  53.2146  93.4212 0001219  96.7473 263.3658 15.08840272 90008,6917.88,95.438,540.588,538.901,0.0
53783.0,STARLINK-4536,PAYLOAD,2024-04-27 06:05:31,15.08841955,0.0001458,53.217,93.1254,87.6194,272.4965,4.5486e-05,4.36e-06,0.0,0 STARLINK-4536,1 53783U 22111L   24118.25383943  .00000436  00000-0  45486-4 0  9990,2 53783  53.2170  93.1254 0001458  87.6194 272.4965 15.08841955 90823,6917.874,95.437,540.748,538.731,0.0
53783.0,STARLINK-4536,PAYLOAD,2024-04-27 15:37:50,15.08835093,0.00014,53.2175,91.3369,84.0721,276.0431,-3.5311e-05,-8.5e-06,0.0,0 STARLINK-4536,1 53783U 22111L   24118.65128361 -.00000850  00000-0 -35311-4 0  9993,2 53783  53.2175  91.3369 0001400  84.0721 276.0431 15.08835093 90889,6917.895,95.438,540.729,538.792,0.0
53783.0,STARLINK-4536,PAYLOAD,2024-04-28 04:20:59,15.08776394,4.56e-05,53.2163,88.9592,122.6336,237.47,-0.00072056,-0.00011717,0.0,0 STARLINK-4536,1 53783U 22111L   24119.18124329 -.00011717  00000-0 -72056-3 0  9992,2 53783  53.2163  88.9592 0000456 122.6336 237.4700 15.08776394 90155,6918.075,95.442,540.255,539.624,0.0
53783.0,STARLINK-4536,PAYLOAD,2024-04-28 21:50:11,15.08838951,0.0001291,53.2168,85.6909,81.9335,278.1803,0.00035059,5.296e-05,0.0,0 STARLINK-4536,1 53783U 22111L   24119.90986021  .00005296  00000-0  35059-3 0  9992,2 53783  53.2168  85.6909 0001291  81.9335 278.1803 15.08838951 90266,6917.884,95.438,540.642,538.855,0.0
53783.0,STARLINK-4536,PAYLOAD,2024-04-29 04:11:44,15.08848347,0.0001309,53.2171,84.5002,87.6234,272.4908,0.00038737,5.884e-05,0.0,0 STARLINK-4536,1 53783U 22111L   24120.17481512  .00005884  00000-0  38737-3 0  9997,2 53783  53.2171  84.5002 0001309  87.6234 272.4908 15.08848347 90301,6917.855,95.437,540.625,538.814,0.0
53783.0,STARLINK-4536,PAYLOAD,2024-04-30 04:02:30,15.08851774,0.0001153,53.2182,80.0415,85.6917,274.4207,7.8861e-05,9.68e-06,0.0,0 STARLINK-4536,1 53783U 22111L   24121.16841217  .00000968  00000-0  78861-4 0  9990,2 53783  53.2182  80.0415 0001153  85.6917 274.4207 15.08851774 90453,6917.844,95.437,540.507,538.912,0.0
53783.0,STARLINK-4536,PAYLOAD,2024-05-01 03:53:17,15.08849683,0.0001192,53.218,75.5807,91.4027,268.7102,-3.6508e-05,-8.69e-06,0.0,0 STARLINK-4536,1 53783U 22111L   24122.16200852 -.00000869  00000-0 -36508-4 0  9999,2 53783  53.2180  75.5807 0001192  91.4027 268.7102 15.08849683 90608,6917.851,95.437,540.54,538.891,0.0
53783.0,STARLINK-4536,PAYLOAD,2024-05-01 13:25:35,15.08857708,0.0001229,53.2185,73.7964,91.1744,268.9389,-2.6223e-05,-7.05e-06,0.0,0 STARLINK-4536,1 53783U 22111L   24122.55943914 -.00000705  00000-0 -26223-4 0  9997,2 53783  53.2185  73.7964 0001229  91.1744 268.9389 15.08857708 91473,6917.826,95.436,540.541,538.841,0.0
53783.0,STARLINK-4536,PAYLOAD,2024-05-01 19:47:08,15.08843427,0.0001462,53.2182,72.6108,104.2388,255.8766,4.0079e-05,3.5e-06,0.0,0 STARLINK-4536,1 53783U 22111L   24122.82440535  .00000350  00000-0  40079-4 0  9997,2 53783  53.2182  72.6108 0001462 104.2388 255.8766 15.08843427 91519,6917.87,95.437,540.746,538.724,0.0
53783.0,STARLINK-4536,PAYLOAD,2024-05-02 03:44:05,15.08830931,0.0001154,53.218,71.1208,100.7404,259.3718,-5.0667e-05,-1.094e-05,0.0,0 STARLINK-4536,1 53783U 22111L   24123.15561648 -.00001094  00000-0 -50667-4 0  9995,2 53783  53.2180  71.1208 0001154 100.7404 259.3718 15.08830931 90757,6917.908,95.438,540.571,538.975,0.0
53783.0,STARLINK-4536,PAYLOAD,2024-05-02 13:16:23,15.08839415,0.0001298,53.2198,69.3362,97.1171,262.9969,2.2733e-05,7.4e-07,0.0,0 STARLINK-4536,1 53783U 22111L   24123.55304999  .00000074  00000-0  22733-4 0  9991,2 53783  53.2198  69.3362 0001298  97.1171 262.9969 15.08839415 90816,6917.882,95.438,540.645,538.849,0.0
53783.0,STARLINK-4536,PAYLOAD,2024-05-03 05:10:14,15.0884926,0.0001087,53.2173,66.3587,98.542,261.5696,8.2215e-05,1.021e-05,0.0,0 STARLINK-4536,1 53783U 22111L   24124.21544290  .00001021  00000-0  82215-4 0  9999,2 53783  53.2173  66.3587 0001087  98.5420 261.5696 15.08849260 90915,6917.852,95.437,540.469,538.965,0.0
53783.0,STARLINK-4536,PAYLOAD,2024-05-03 13:07:09,15.08853102,0.0001498,53.2168,64.8782,88.3956,271.7208,0.00013853,1.918e-05,0.0,0 STARLINK-4536,1 53783U 22111L   24124.54663872  .00001918  00000-0  13853-3 0  9999,2 53783  53.2168  64.8782 0001498  88.3956 271.7208 15.08853102 91773,6917.84,95.437,540.742,538.669,0.0
53783.0,STARLINK-4536,PAYLOAD,2024-05-04 05:01:03,15.08818256,0.0001257,53.2186,61.8995,79.2201,280.8933,-6.4773e-05,-1.318e-05,0.0,0 STARLINK-4536,1 53783U 22111L   24125.20907334 -.00001318  00000-0 -64773-4 0  9991,2 53783  53.2186  61.8995 0001257  79.2201 280.8933 15.08818256 91060,6917.947,95.439,540.681,538.942,0.0
53783.0,STARLINK-4536,PAYLOAD,2024-05-04 19:19:31,15.08831366,0.0001293,53.2178,59.2261,85.0485,275.0655,5.2849e-05,5.53e-06,0.0,0 STARLINK-4536,1 53783U 22111L   24125.80522724  .00000553  00000-0  52849-4 0  9992,2 53783  53.2178  59.2261 0001293  85.0485 275.0655 15.08831366 91151,6917.907,95.438,540.666,538.877,0.0
53783.0,STARLINK-4536,PAYLOAD,2024-05-05 04:51:49,15.08844527,0.0001328,53.2175,57.441,75.0948,285.0192,0.00021557,3.145e-05,0.0,0 STARLINK-4536,1 53783U 22111L   24126.20266170  .00003145  00000-0  21557-3 0  9998,2 53783  53.2175  57.4410 0001328  75.0948 285.0192 15.08844527 91213,6917.867,95.437,540.65,538.813,0.0
